[{"OBJECT_NAME":"STARLINK-1894","OBJECT_ID":"2020-074F","EPOCH":"2026-03-10T00:00:02.999808","MEAN_MOTION":15.80712393,"ECCENTRICITY":0.00023349,"INCLINATION":53.0425,"RA_OF_ASC_NODE":276.1954,"ARG_OF_PERICENTER":282.1358,"MEAN_ANOMALY":10.1034,"EPHEMERIS_TYPE":0,"CLASSIFICATION_TYPE":"U","NORAD_CAT_ID":46744,"ELEMENT_SET_NO":999,"REV_AT_EPOCH":597,"BSTAR":0.0014063958,"MEAN_MOTION_DOT":0.00284143,"MEAN_MOTION_DDOT":0},{"OBJECT_NAME":"STARLINK-36876","OBJECT_ID":"2026-035Z","EPOCH":"2026-03-09T22:00:01.999584","MEAN_MOTION":15.86701096,"ECCENTRICITY":0.00014903,"INCLINATION":97.2676,"RA_OF_ASC_NODE":1.2947,"ARG_OF_PERICENTER":91.7409,"MEAN_ANOMALY":46.0724,"EPHEMERIS_TYPE":0,"CLASSIFICATION_TYPE":"U","NORAD_CAT_ID":67902,"ELEMENT_SET_NO":999,"REV_AT_EPOCH":379,"BSTAR":-0.0064413054,"MEAN_MOTION_DOT":-0.01420826,"MEAN_MOTION_DDOT":0}]
